HULIANWANG DIGUI-28     
1 63695U 25086J   26201.25840316  .00000030  00000+0  36343-4 0  9995
2 63695  86.5021 301.7912 0002175 110.1326 250.0042 13.24411245 59234
HULIANWANG DIGUI-29     
1 63696U 25086K   26201.25088099  .00000041  00000+0  61380-4 0  9999
2 63696  86.5049 301.9107 0002051 112.7983 247.3368 13.24411596 59232
HULIANWANG DIGUI-30     
1 64283U 25121A   26201.25832658  .00000021  00000+0  15404-4 0  9994
2 64283  86.4995   2.3974 0001860  88.5517 271.5830 13.24409583 54532
HULIANWANG DIGUI-31     
1 64284U 25121B   26201.25080513  .00000052  00000+0  87483-4 0  9990
2 64284  86.5022   2.4772 0001917  89.2981 270.8373 13.24414582 54537
HULIANWANG DIGUI-32     
1 64285U 25121C   26201.24312215  .00000049  00000+0  80402-4 0  9997
2 64285  86.4963   2.2318 0001906  93.7072 266.4280 13.24410423 54532
HULIANWANG DIGUI-33     
1 64286U 25121D   26201.23557449  .00000046  00000+0  72073-4 0  9999
2 64286  86.5021   2.4658 0001932  89.7693 270.3662 13.24410014 54535
HULIANWANG DIGUI-34     
1 64287U 25121E   26201.22805443  .00000029  00000+0  34592-4 0  9994
2 64287  86.4998   2.3707 0002067  81.2745 278.8623 13.24410685 54531
HULIANWANG DIGUI-35     
1 64956U 25159A   26201.26598984  .00000014  00000+0 -14626-5 0  9993
2 64956  86.4935 271.2555 0004241  56.1763 303.9774 13.24413415 47500
HULIANWANG DIGUI-36     
1 64957U 25159B   26201.26209503  .00000012  00000+0 -68713-5 0  9994
2 64957  86.4954 271.3235 0001673 104.0600 256.0720 13.24408848 47500
HULIANWANG DIGUI-37     
1 64958U 25159C   26201.25452188  .00000015  00000+0  12398-5 0  9993
2 64958  86.4896 271.1106 0001781  98.8206 261.3130 13.24409589 47500
HULIANWANG DIGUI-38     
1 64959U 25159D   26201.24700390  .00000019  00000+0  10993-4 0  9996
2 64959  86.4955 271.3164 0001842  99.3165 260.8178 13.24409280 47505
HULIANWANG DIGUI-39     
1 64960U 25159E   26201.23943688  .00000026  00000+0  26029-4 0  9991
2 64960  86.4931 271.2268 0001828 102.1998 257.9341 13.24409135 47504
HULIANWANG DIGUI-40     
1 65043U 25162A   26201.24507569 -.00000096  00000+0  61018-4 0  9998
2 65043  49.9984 147.3655 0000273 343.8801  16.2062 13.29327511 47746
HULIANWANG DIGUI-41     
1 65044U 25162B   26201.23674063 -.00000088  00000+0  77956-4 0  9991
2 65044  49.9995 147.3499 0000267 355.6145   4.4725 13.29327100 47750
HULIANWANG DIGUI-42     
1 65045U 25162C   26201.22831844 -.00000088  00000+0  78377-4 0  9991
2 65045  49.9960 147.2087 0000266 345.2071  14.8793 13.29327729 47754
HULIANWANG DIGUI-43     
1 65046U 25162D   26201.22000778 -.00000084  00000+0  85375-4 0  9998
2 65046  49.9978 147.2149 0000315 338.7173  21.3686 13.29326306 47752
