{"fetched_at":"2026-07-20T18:29:26.415Z","source":"https://celestrak.org/NORAD/elements/gp.php?NAME=HULIANWANG&FORMAT=JSON","constellation":"guowang","records":[{"OBJECT_NAME":"HULIANWANG DIGUI-28","OBJECT_ID":"2025-086J","EPOCH":"2026-07-20T06:12:06.033024","CLASSIFICATION_TYPE":"U","MEAN_MOTION":13.24411245,"ECCENTRICITY":0.00021755,"INCLINATION":86.5021,"RA_OF_ASC_NODE":301.7912,"ARG_OF_PERICENTER":110.1326,"MEAN_ANOMALY":250.0042,"EPHEMERIS_TYPE":0,"NORAD_CAT_ID":63695,"ELEMENT_SET_NO":999,"REV_AT_EPOCH":5923,"BSTAR":0.000036343324,"MEAN_MOTION_DOT":3e-7,"MEAN_MOTION_DDOT":0},{"OBJECT_NAME":"HULIANWANG DIGUI-29","OBJECT_ID":"2025-086K","EPOCH":"2026-07-20T06:01:16.117536","CLASSIFICATION_TYPE":"U","MEAN_MOTION":13.24411596,"ECCENTRICITY":0.00020513,"INCLINATION":86.5049,"RA_OF_ASC_NODE":301.9107,"ARG_OF_PERICENTER":112.7983,"MEAN_ANOMALY":247.3368,"EPHEMERIS_TYPE":0,"NORAD_CAT_ID":63696,"ELEMENT_SET_NO":999,"REV_AT_EPOCH":5923,"BSTAR":0.000061380296,"MEAN_MOTION_DOT":4.1e-7,"MEAN_MOTION_DDOT":0},{"OBJECT_NAME":"HULIANWANG DIGUI-30","OBJECT_ID":"2025-121A","EPOCH":"2026-07-20T06:11:59.416512","CLASSIFICATION_TYPE":"U","MEAN_MOTION":13.24409583,"ECCENTRICITY":0.00018605,"INCLINATION":86.4995,"RA_OF_ASC_NODE":2.3974,"ARG_OF_PERICENTER":88.5517,"MEAN_ANOMALY":271.583,"EPHEMERIS_TYPE":0,"NORAD_CAT_ID":64283,"ELEMENT_SET_NO":999,"REV_AT_EPOCH":5453,"BSTAR":0.000015403791,"MEAN_MOTION_DOT":2.1e-7,"MEAN_MOTION_DDOT":0},{"OBJECT_NAME":"HULIANWANG DIGUI-31","OBJECT_ID":"2025-121B","EPOCH":"2026-07-20T06:01:09.563232","CLASSIFICATION_TYPE":"U","MEAN_MOTION":13.24414582,"ECCENTRICITY":0.00019173,"INCLINATION":86.5022,"RA_OF_ASC_NODE":2.4772,"ARG_OF_PERICENTER":89.2981,"MEAN_ANOMALY":270.8373,"EPHEMERIS_TYPE":0,"NORAD_CAT_ID":64284,"ELEMENT_SET_NO":999,"REV_AT_EPOCH":5453,"BSTAR":0.000087483362,"MEAN_MOTION_DOT":5.2e-7,"MEAN_MOTION_DDOT":0},{"OBJECT_NAME":"HULIANWANG DIGUI-32","OBJECT_ID":"2025-121C","EPOCH":"2026-07-20T05:50:05.753760","CLASSIFICATION_TYPE":"U","MEAN_MOTION":13.24410423,"ECCENTRICITY":0.00019063,"INCLINATION":86.4963,"RA_OF_ASC_NODE":2.2318,"ARG_OF_PERICENTER":93.7072,"MEAN_ANOMALY":266.428,"EPHEMERIS_TYPE":0,"NORAD_CAT_ID":64285,"ELEMENT_SET_NO":999,"REV_AT_EPOCH":5453,"BSTAR":0.000080402348,"MEAN_MOTION_DOT":4.9e-7,"MEAN_MOTION_DDOT":0},{"OBJECT_NAME":"HULIANWANG DIGUI-33","OBJECT_ID":"2025-121D","EPOCH":"2026-07-20T05:39:13.635936","CLASSIFICATION_TYPE":"U","MEAN_MOTION":13.24410014,"ECCENTRICITY":0.00019327,"INCLINATION":86.5021,"RA_OF_ASC_NODE":2.4658,"ARG_OF_PERICENTER":89.7693,"MEAN_ANOMALY":270.3662,"EPHEMERIS_TYPE":0,"NORAD_CAT_ID":64286,"ELEMENT_SET_NO":999,"REV_AT_EPOCH":5453,"BSTAR":0.000072073459,"MEAN_MOTION_DOT":4.6e-7,"MEAN_MOTION_DDOT":0},{"OBJECT_NAME":"HULIANWANG DIGUI-34","OBJECT_ID":"2025-121E","EPOCH":"2026-07-20T05:28:23.902752","CLASSIFICATION_TYPE":"U","MEAN_MOTION":13.24410685,"ECCENTRICITY":0.00020679,"INCLINATION":86.4998,"RA_OF_ASC_NODE":2.3707,"ARG_OF_PERICENTER":81.2745,"MEAN_ANOMALY":278.8623,"EPHEMERIS_TYPE":0,"NORAD_CAT_ID":64287,"ELEMENT_SET_NO":999,"REV_AT_EPOCH":5453,"BSTAR":0.000034591896,"MEAN_MOTION_DOT":2.9e-7,"MEAN_MOTION_DDOT":0},{"OBJECT_NAME":"HULIANWANG DIGUI-35","OBJECT_ID":"2025-159A","EPOCH":"2026-07-20T06:23:01.522176","CLASSIFICATION_TYPE":"U","MEAN_MOTION":13.24413415,"ECCENTRICITY":0.00042417,"INCLINATION":86.4935,"RA_OF_ASC_NODE":271.2555,"ARG_OF_PERICENTER":56.1763,"MEAN_ANOMALY":303.9774,"EPHEMERIS_TYPE":0,"NORAD_CAT_ID":64956,"ELEMENT_SET_NO":999,"REV_AT_EPOCH":4750,"BSTAR":-0.000001462625,"MEAN_MOTION_DOT":1.4e-7,"MEAN_MOTION_DDOT":0},{"OBJECT_NAME":"HULIANWANG DIGUI-36","OBJECT_ID":"2025-159B","EPOCH":"2026-07-20T06:17:25.010592","CLASSIFICATION_TYPE":"U","MEAN_MOTION":13.24408848,"ECCENTRICITY":0.00016731,"INCLINATION":86.4954,"RA_OF_ASC_NODE":271.3235,"ARG_OF_PERICENTER":104.06,"MEAN_ANOMALY":256.072,"EPHEMERIS_TYPE":0,"NORAD_CAT_ID":64957,"ELEMENT_SET_NO":999,"REV_AT_EPOCH":4750,"BSTAR":-0.000006871287,"MEAN_MOTION_DOT":1.2e-7,"MEAN_MOTION_DDOT":0},{"OBJECT_NAME":"HULIANWANG DIGUI-37","OBJECT_ID":"2025-159C","EPOCH":"2026-07-20T06:06:30.690432","CLASSIFICATION_TYPE":"U","MEAN_MOTION":13.24409589,"ECCENTRICITY":0.00017811,"INCLINATION":86.4896,"RA_OF_ASC_NODE":271.1106,"ARG_OF_PERICENTER":98.8206,"MEAN_ANOMALY":261.313,"EPHEMERIS_TYPE":0,"NORAD_CAT_ID":64958,"ELEMENT_SET_NO":999,"REV_AT_EPOCH":4750,"BSTAR":0.0000012398,"MEAN_MOTION_DOT":1.5e-7,"MEAN_MOTION_DDOT":0},{"OBJECT_NAME":"HULIANWANG DIGUI-38","OBJECT_ID":"2025-159D","EPOCH":"2026-07-20T05:55:41.136960","CLASSIFICATION_TYPE":"U","MEAN_MOTION":13.2440928,"ECCENTRICITY":0.00018426,"INCLINATION":86.4955,"RA_OF_ASC_NODE":271.3164,"ARG_OF_PERICENTER":99.3165,"MEAN_ANOMALY":260.8178,"EPHEMERIS_TYPE":0,"NORAD_CAT_ID":64959,"ELEMENT_SET_NO":999,"REV_AT_EPOCH":4750,"BSTAR":0.00001099271,"MEAN_MOTION_DOT":1.9e-7,"MEAN_MOTION_DDOT":0},{"OBJECT_NAME":"HULIANWANG DIGUI-39","OBJECT_ID":"2025-159E","EPOCH":"2026-07-20T05:44:47.346432","CLASSIFICATION_TYPE":"U","MEAN_MOTION":13.24409135,"ECCENTRICITY":0.00018289,"INCLINATION":86.4931,"RA_OF_ASC_NODE":271.2268,"ARG_OF_PERICENTER":102.1998,"MEAN_ANOMALY":257.9341,"EPHEMERIS_TYPE":0,"NORAD_CAT_ID":64960,"ELEMENT_SET_NO":999,"REV_AT_EPOCH":4750,"BSTAR":0.000026028983,"MEAN_MOTION_DOT":2.6e-7,"MEAN_MOTION_DDOT":0},{"OBJECT_NAME":"HULIANWANG DIGUI-40","OBJECT_ID":"2025-162A","EPOCH":"2026-07-20T05:52:54.539616","CLASSIFICATION_TYPE":"U","MEAN_MOTION":13.29327511,"ECCENTRICITY":0.00002734,"INCLINATION":49.9984,"RA_OF_ASC_NODE":147.3655,"ARG_OF_PERICENTER":343.8801,"MEAN_ANOMALY":16.2062,"EPHEMERIS_TYPE":0,"NORAD_CAT_ID":65043,"ELEMENT_SET_NO":999,"REV_AT_EPOCH":4774,"BSTAR":0.000061017501,"MEAN_MOTION_DOT":-9.6e-7,"MEAN_MOTION_DDOT":0},{"OBJECT_NAME":"HULIANWANG DIGUI-41","OBJECT_ID":"2025-162B","EPOCH":"2026-07-20T05:40:54.390432","CLASSIFICATION_TYPE":"U","MEAN_MOTION":13.293271,"ECCENTRICITY":0.00002673,"INCLINATION":49.9995,"RA_OF_ASC_NODE":147.3499,"ARG_OF_PERICENTER":355.6145,"MEAN_ANOMALY":4.4725,"EPHEMERIS_TYPE":0,"NORAD_CAT_ID":65044,"ELEMENT_SET_NO":999,"REV_AT_EPOCH":4775,"BSTAR":0.000077956266,"MEAN_MOTION_DOT":-8.8e-7,"MEAN_MOTION_DDOT":0},{"OBJECT_NAME":"HULIANWANG DIGUI-42","OBJECT_ID":"2025-162C","EPOCH":"2026-07-20T05:28:46.713216","CLASSIFICATION_TYPE":"U","MEAN_MOTION":13.29327729,"ECCENTRICITY":0.0000266,"INCLINATION":49.996,"RA_OF_ASC_NODE":147.2087,"ARG_OF_PERICENTER":345.2071,"MEAN_ANOMALY":14.8793,"EPHEMERIS_TYPE":0,"NORAD_CAT_ID":65045,"ELEMENT_SET_NO":999,"REV_AT_EPOCH":4775,"BSTAR":0.000078377279,"MEAN_MOTION_DOT":-8.8e-7,"MEAN_MOTION_DDOT":0},{"OBJECT_NAME":"HULIANWANG DIGUI-43","OBJECT_ID":"2025-162D","EPOCH":"2026-07-20T05:16:48.672192","CLASSIFICATION_TYPE":"U","MEAN_MOTION":13.29326306,"ECCENTRICITY":0.0000315,"INCLINATION":49.9978,"RA_OF_ASC_NODE":147.2149,"ARG_OF_PERICENTER":338.7173,"MEAN_ANOMALY":21.3686,"EPHEMERIS_TYPE":0,"NORAD_CAT_ID":65046,"ELEMENT_SET_NO":999,"REV_AT_EPOCH":4775,"BSTAR":0.00008537482,"MEAN_MOTION_DOT":-8.4e-7,"MEAN_MOTION_DDOT":0}]}
